[{"OBJECT_NAME":"STARLINK-34135","OBJECT_ID":"2025-099N","EPOCH":"2026-03-09T08:08:01.376448","MEAN_MOTION":15.27590381,"ECCENTRICITY":0.00020956,"INCLINATION":43.0012,"RA_OF_ASC_NODE":178.117,"ARG_OF_PERICENTER":282.0487,"MEAN_ANOMALY":78.013,"EPHEMERIS_TYPE":0,"CLASSIFICATION_TYPE":"U","NORAD_CAT_ID":63964,"ELEMENT_SET_NO":999,"REV_AT_EPOCH":4728,"BSTAR":0.00086767981,"MEAN_MOTION_DOT":0.00023699,"MEAN_MOTION_DDOT":0},{"OBJECT_NAME":"REAL","OBJECT_ID":"2025-154G","EPOCH":"2026-03-09T17:20:09.670560","MEAN_MOTION":15.28408058,"ECCENTRICITY":0.00018528,"INCLINATION":97.4133,"RA_OF_ASC_NODE":137.2581,"ARG_OF_PERICENTER":118.5876,"MEAN_ANOMALY":241.555,"EPHEMERIS_TYPE":0,"CLASSIFICATION_TYPE":"U","NORAD_CAT_ID":64875,"ELEMENT_SET_NO":999,"REV_AT_EPOCH":3483,"BSTAR":0.0008290401,"MEAN_MOTION_DOT":0.00022901,"MEAN_MOTION_DDOT":0}]
